[{"OBJECT_NAME":"BB3","OBJECT_ID":"2023-133D","EPOCH":"2026-03-09T13:04:02.862912","MEAN_MOTION":14.27357433,"ECCENTRICITY":0.0139598,"INCLINATION":81.0042,"RA_OF_ASC_NODE":95.4105,"ARG_OF_PERICENTER":242.6727,"MEAN_ANOMALY":116.0185,"EPHEMERIS_TYPE":0,"CLASSIFICATION_TYPE":"U","NORAD_CAT_ID":57760,"ELEMENT_SET_NO":999,"REV_AT_EPOCH":12768,"BSTAR":0.00021531,"MEAN_MOTION_DOT":5.96e-6,"MEAN_MOTION_DDOT":0},{"OBJECT_NAME":"THOR ABLESTAR DEB","OBJECT_ID":"1961-015L","EPOCH":"2026-03-09T22:41:08.529504","MEAN_MOTION":14.44590967,"ECCENTRICITY":0.00637946,"INCLINATION":66.7119,"RA_OF_ASC_NODE":359.5905,"ARG_OF_PERICENTER":323.9394,"MEAN_ANOMALY":35.7416,"EPHEMERIS_TYPE":0,"CLASSIFICATION_TYPE":"U","NORAD_CAT_ID":126,"ELEMENT_SET_NO":999,"REV_AT_EPOCH":35026,"BSTAR":0.00081249246,"MEAN_MOTION_DOT":2.796e-5,"MEAN_MOTION_DDOT":0}]
